[{"OBJECT_NAME":"KINEIS-3C","OBJECT_ID":"2024-172A","EPOCH":"2026-03-09T20:22:22.104480","MEAN_MOTION":14.72318845,"ECCENTRICITY":0.00034983,"INCLINATION":98.0288,"RA_OF_ASC_NODE":159.8485,"ARG_OF_PERICENTER":99.6401,"MEAN_ANOMALY":260.5202,"EPHEMERIS_TYPE":0,"CLASSIFICATION_TYPE":"U","NORAD_CAT_ID":61220,"ELEMENT_SET_NO":999,"REV_AT_EPOCH":7845,"BSTAR":0.00048160166,"MEAN_MOTION_DOT":2.996e-5,"MEAN_MOTION_DDOT":0},{"OBJECT_NAME":"NOAA 16 DEB","OBJECT_ID":"2000-055BY","EPOCH":"2026-03-09T04:36:04.104288","MEAN_MOTION":14.68231825,"ECCENTRICITY":0.00379494,"INCLINATION":98.9729,"RA_OF_ASC_NODE":339.66,"ARG_OF_PERICENTER":311.0147,"MEAN_ANOMALY":48.7776,"EPHEMERIS_TYPE":0,"CLASSIFICATION_TYPE":"U","NORAD_CAT_ID":41141,"ELEMENT_SET_NO":999,"REV_AT_EPOCH":53748,"BSTAR":0.0032223445,"MEAN_MOTION_DOT":0.00018756,"MEAN_MOTION_DDOT":0}]
